[{"OBJECT_NAME":"STARLINK-33997","OBJECT_ID":"2025-098C","EPOCH":"2026-03-09T22:20:46.078368","MEAN_MOTION":14.96551413,"ECCENTRICITY":0.00068477,"INCLINATION":70.0004,"RA_OF_ASC_NODE":274.0384,"ARG_OF_PERICENTER":77.5305,"MEAN_ANOMALY":282.6619,"EPHEMERIS_TYPE":0,"CLASSIFICATION_TYPE":"U","NORAD_CAT_ID":63928,"ELEMENT_SET_NO":999,"REV_AT_EPOCH":4660,"BSTAR":-0.062237161,"MEAN_MOTION_DOT":-0.00663337,"MEAN_MOTION_DDOT":0},{"OBJECT_NAME":"ELISA E12","OBJECT_ID":"2011-076D","EPOCH":"2026-03-09T21:55:09.308352","MEAN_MOTION":14.92421769,"ECCENTRICITY":0.00021236,"INCLINATION":97.6519,"RA_OF_ASC_NODE":97.7616,"ARG_OF_PERICENTER":107.7768,"MEAN_ANOMALY":252.3684,"EPHEMERIS_TYPE":0,"CLASSIFICATION_TYPE":"U","NORAD_CAT_ID":38010,"ELEMENT_SET_NO":999,"REV_AT_EPOCH":76441,"BSTAR":0.00016008382,"MEAN_MOTION_DOT":1.585e-5,"MEAN_MOTION_DDOT":0}]
